CCSDS_OMM_VERS = 2.0
CREATION_DATE  = 
ORIGINATOR     = 

OBJECT_NAME    = STARLINK-35690
OBJECT_ID      = 2025-257D
CENTER_NAME    = EARTH
REF_FRAME      = TEME
TIME_SYSTEM    = UTC
MEAN_ELEMENT_THEORY = SGP/SGP4

EPOCH          = 2025-11-26T20:00:01.000224
MEAN_MOTION    = 15.60425162
ECCENTRICITY   = .0001044
INCLINATION    = 53.1597
RA_OF_ASC_NODE = 339.9933
ARG_OF_PERICENTER = 94.7174
MEAN_ANOMALY   = 217.9840

EPHEMERIS_TYPE = 0
CLASSIFICATION_TYPE = U
NORAD_CAT_ID   = 66383
ELEMENT_SET_NO = 999
REV_AT_EPOCH   = 394
BSTAR          = -.27102E-1
MEAN_MOTION_DOT = -.1992308E-1
MEAN_MOTION_DDOT = 0

CCSDS_OMM_VERS = 2.0
CREATION_DATE  = 
ORIGINATOR     = 

OBJECT_NAME    = STARLINK-35662
OBJECT_ID      = 2025-257E
CENTER_NAME    = EARTH
REF_FRAME      = TEME
TIME_SYSTEM    = UTC
MEAN_ELEMENT_THEORY = SGP/SGP4

EPOCH          = 2025-11-26T20:00:01.000224
MEAN_MOTION    = 15.60429705
ECCENTRICITY   = .0001139
INCLINATION    = 53.1596
RA_OF_ASC_NODE = 339.9905
ARG_OF_PERICENTER = 88.8330
MEAN_ANOMALY   = 225.7821

EPHEMERIS_TYPE = 0
CLASSIFICATION_TYPE = U
NORAD_CAT_ID   = 66384
ELEMENT_SET_NO = 999
REV_AT_EPOCH   = 394
BSTAR          = -.27193E-1
MEAN_MOTION_DOT = -.1998579E-1
MEAN_MOTION_DDOT = 0

CCSDS_OMM_VERS = 2.0
CREATION_DATE  = 
ORIGINATOR     = 

OBJECT_NAME    = STARLINK-35659
OBJECT_ID      = 2025-257F
CENTER_NAME    = EARTH
REF_FRAME      = TEME
TIME_SYSTEM    = UTC
MEAN_ELEMENT_THEORY = SGP/SGP4

EPOCH          = 2025-11-26T20:00:01.000224
MEAN_MOTION    = 15.60427826
ECCENTRICITY   = .000118
INCLINATION    = 53.1597
RA_OF_ASC_NODE = 339.9978
ARG_OF_PERICENTER = 92.2943
MEAN_ANOMALY   = 218.4889

EPHEMERIS_TYPE = 0
CLASSIFICATION_TYPE = U
NORAD_CAT_ID   = 66385
ELEMENT_SET_NO = 999
REV_AT_EPOCH   = 394
BSTAR          = -.2716E-1
MEAN_MOTION_DOT = -.1996362E-1
MEAN_MOTION_DDOT = 0

CCSDS_OMM_VERS = 2.0
CREATION_DATE  = 
ORIGINATOR     = 

OBJECT_NAME    = STARLINK-35651
OBJECT_ID      = 2025-257G
CENTER_NAME    = EARTH
REF_FRAME      = TEME
TIME_SYSTEM    = UTC
MEAN_ELEMENT_THEORY = SGP/SGP4

EPOCH          = 2025-11-26T20:00:01.000224
MEAN_MOTION    = 15.60429079
ECCENTRICITY   = .000106
INCLINATION    = 53.1596
RA_OF_ASC_NODE = 339.9864
ARG_OF_PERICENTER = 96.6328
MEAN_ANOMALY   = 219.9027

EPHEMERIS_TYPE = 0
CLASSIFICATION_TYPE = U
NORAD_CAT_ID   = 66386
ELEMENT_SET_NO = 999
REV_AT_EPOCH   = 394
BSTAR          = -.27204E-1
MEAN_MOTION_DOT = -.1999201E-1
MEAN_MOTION_DDOT = 0

CCSDS_OMM_VERS = 2.0
CREATION_DATE  = 
ORIGINATOR     = 

OBJECT_NAME    = STARLINK-35661
OBJECT_ID      = 2025-257H
CENTER_NAME    = EARTH
REF_FRAME      = TEME
TIME_SYSTEM    = UTC
MEAN_ELEMENT_THEORY = SGP/SGP4

EPOCH          = 2025-11-26T20:00:01.000224
MEAN_MOTION    = 15.60425413
ECCENTRICITY   = .0001068
INCLINATION    = 53.1596
RA_OF_ASC_NODE = 339.9820
ARG_OF_PERICENTER = 85.9278
MEAN_ANOMALY   = 232.5265

EPHEMERIS_TYPE = 0
CLASSIFICATION_TYPE = U
NORAD_CAT_ID   = 66387
ELEMENT_SET_NO = 999
REV_AT_EPOCH   = 394
BSTAR          = -.27163E-1
MEAN_MOTION_DOT = -.1996289E-1
MEAN_MOTION_DDOT = 0

CCSDS_OMM_VERS = 2.0
CREATION_DATE  = 
ORIGINATOR     = 

OBJECT_NAME    = STARLINK-35647
OBJECT_ID      = 2025-257J
CENTER_NAME    = EARTH
REF_FRAME      = TEME
TIME_SYSTEM    = UTC
MEAN_ELEMENT_THEORY = SGP/SGP4

EPOCH          = 2025-11-26T20:00:01.000224
MEAN_MOTION    = 15.60423500
ECCENTRICITY   = .0001195
INCLINATION    = 53.1596
RA_OF_ASC_NODE = 339.9777
ARG_OF_PERICENTER = 89.0204
MEAN_ANOMALY   = 231.3493

EPHEMERIS_TYPE = 0
CLASSIFICATION_TYPE = U
NORAD_CAT_ID   = 66388
ELEMENT_SET_NO = 999
REV_AT_EPOCH   = 394
BSTAR          = -.27097E-1
MEAN_MOTION_DOT = -.1992033E-1
MEAN_MOTION_DDOT = 0

CCSDS_OMM_VERS = 2.0
CREATION_DATE  = 
ORIGINATOR     = 

OBJECT_NAME    = STARLINK-35694
OBJECT_ID      = 2025-257K
CENTER_NAME    = EARTH
REF_FRAME      = TEME
TIME_SYSTEM    = UTC
MEAN_ELEMENT_THEORY = SGP/SGP4

EPOCH          = 2025-11-26T20:00:01.000224
MEAN_MOTION    = 15.60427569
ECCENTRICITY   = .0001101
INCLINATION    = 53.1595
RA_OF_ASC_NODE = 339.9737
ARG_OF_PERICENTER = 89.5752
MEAN_ANOMALY   = 232.7107

EPHEMERIS_TYPE = 0
CLASSIFICATION_TYPE = U
NORAD_CAT_ID   = 66389
ELEMENT_SET_NO = 999
REV_AT_EPOCH   = 394
BSTAR          = -.27185E-1
MEAN_MOTION_DOT = -.199786E-1
MEAN_MOTION_DDOT = 0

CCSDS_OMM_VERS = 2.0
CREATION_DATE  = 
ORIGINATOR     = 

OBJECT_NAME    = STARLINK-35665
OBJECT_ID      = 2025-257L
CENTER_NAME    = EARTH
REF_FRAME      = TEME
TIME_SYSTEM    = UTC
MEAN_ELEMENT_THEORY = SGP/SGP4

EPOCH          = 2025-11-26T20:00:01.000224
MEAN_MOTION    = 15.60428042
ECCENTRICITY   = .0001059
INCLINATION    = 53.1597
RA_OF_ASC_NODE = 339.9021
ARG_OF_PERICENTER = 76.0919
MEAN_ANOMALY   = 280.6960

EPHEMERIS_TYPE = 0
CLASSIFICATION_TYPE = U
NORAD_CAT_ID   = 66390
ELEMENT_SET_NO = 999
REV_AT_EPOCH   = 403
BSTAR          = -.27184E-1
MEAN_MOTION_DOT = -.1997816E-1
MEAN_MOTION_DDOT = 0

CCSDS_OMM_VERS = 2.0
CREATION_DATE  = 
ORIGINATOR     = 

OBJECT_NAME    = STARLINK-35656
OBJECT_ID      = 2025-257M
CENTER_NAME    = EARTH
REF_FRAME      = TEME
TIME_SYSTEM    = UTC
MEAN_ELEMENT_THEORY = SGP/SGP4

EPOCH          = 2025-11-26T20:00:01.000224
MEAN_MOTION    = 15.57636017
ECCENTRICITY   = .0001228
INCLINATION    = 53.1595
RA_OF_ASC_NODE = 339.6199
ARG_OF_PERICENTER = 85.8763
MEAN_ANOMALY   = 46.7340

EPHEMERIS_TYPE = 0
CLASSIFICATION_TYPE = U
NORAD_CAT_ID   = 66391
ELEMENT_SET_NO = 999
REV_AT_EPOCH   = 403
BSTAR          = -.32715E-1
MEAN_MOTION_DOT = -.2182214E-1
MEAN_MOTION_DDOT = 0

CCSDS_OMM_VERS = 2.0
CREATION_DATE  = 
ORIGINATOR     = 

OBJECT_NAME    = STARLINK-35671
OBJECT_ID      = 2025-257N
CENTER_NAME    = EARTH
REF_FRAME      = TEME
TIME_SYSTEM    = UTC
MEAN_ELEMENT_THEORY = SGP/SGP4

EPOCH          = 2025-11-26T20:00:01.000224
MEAN_MOTION    = 15.60421490
ECCENTRICITY   = .0001008
INCLINATION    = 53.1600
RA_OF_ASC_NODE = 339.9657
ARG_OF_PERICENTER = 81.8459
MEAN_ANOMALY   = 244.2749

EPHEMERIS_TYPE = 0
CLASSIFICATION_TYPE = U
NORAD_CAT_ID   = 66392
ELEMENT_SET_NO = 999
REV_AT_EPOCH   = 394
BSTAR          = -.27019E-1
MEAN_MOTION_DOT = -.1986695E-1
MEAN_MOTION_DDOT = 0

CCSDS_OMM_VERS = 2.0
CREATION_DATE  = 
ORIGINATOR     = 

OBJECT_NAME    = STARLINK-35652
OBJECT_ID      = 2025-257P
CENTER_NAME    = EARTH
REF_FRAME      = TEME
TIME_SYSTEM    = UTC
MEAN_ELEMENT_THEORY = SGP/SGP4

EPOCH          = 2025-11-26T20:00:01.000224
MEAN_MOTION    = 15.60427336
ECCENTRICITY   = .0001084
INCLINATION    = 53.1596
RA_OF_ASC_NODE = 339.9704
ARG_OF_PERICENTER = 94.5737
MEAN_ANOMALY   = 229.6311

EPHEMERIS_TYPE = 0
CLASSIFICATION_TYPE = U
NORAD_CAT_ID   = 66393
ELEMENT_SET_NO = 999
REV_AT_EPOCH   = 394
BSTAR          = -.27196E-1
MEAN_MOTION_DOT = -.1998565E-1
MEAN_MOTION_DDOT = 0

CCSDS_OMM_VERS = 2.0
CREATION_DATE  = 
ORIGINATOR     = 

OBJECT_NAME    = STARLINK-35672
OBJECT_ID      = 2025-257Q
CENTER_NAME    = EARTH
REF_FRAME      = TEME
TIME_SYSTEM    = UTC
MEAN_ELEMENT_THEORY = SGP/SGP4

EPOCH          = 2025-11-26T20:00:01.000224
MEAN_MOTION    = 15.60434511
ECCENTRICITY   = .0001027
INCLINATION    = 53.1598
RA_OF_ASC_NODE = 339.9619
ARG_OF_PERICENTER = 82.4466
MEAN_ANOMALY   = 245.5877

EPHEMERIS_TYPE = 0
CLASSIFICATION_TYPE = U
NORAD_CAT_ID   = 66394
ELEMENT_SET_NO = 999
REV_AT_EPOCH   = 394
BSTAR          = -.27337E-1
MEAN_MOTION_DOT = -.2008101E-1
MEAN_MOTION_DDOT = 0

