STARLINK-35690          
1 66383U 25257D   25330.83334491 -.01992308  00000+0 -27102-1 0  9991
2 66383  53.1597 339.9933 0001044  94.7174 217.9840 15.60425162  3947
STARLINK-35662          
1 66384U 25257E   25330.83334491 -.01998579  00000+0 -27193-1 0  9998
2 66384  53.1596 339.9905 0001139  88.8330 225.7821 15.60429705  3942
STARLINK-35659          
1 66385U 25257F   25330.83334491 -.01996362  00000+0 -27160-1 0  9991
2 66385  53.1597 339.9978 0001180  92.2943 218.4889 15.60427826  3944
STARLINK-35651          
1 66386U 25257G   25330.83334491 -.01999201  00000+0 -27204-1 0  9996
2 66386  53.1596 339.9864 0001060  96.6328 219.9027 15.60429079  3942
STARLINK-35661          
1 66387U 25257H   25330.83334491 -.01996289  00000+0 -27163-1 0  9994
2 66387  53.1596 339.9820 0001068  85.9278 232.5265 15.60425413  3941
STARLINK-35647          
1 66388U 25257J   25330.83334491 -.01992033  00000+0 -27097-1 0  9994
2 66388  53.1596 339.9777 0001195  89.0204 231.3493 15.60423500  3943
STARLINK-35694          
1 66389U 25257K   25330.83334491 -.01997860  00000+0 -27185-1 0  9996
2 66389  53.1595 339.9737 0001101  89.5752 232.7107 15.60427569  3945
STARLINK-35665          
1 66390U 25257L   25330.83334491 -.01997816  00000+0 -27184-1 0  9998
2 66390  53.1597 339.9021 0001059  76.0919 280.6960 15.60428042  4030
STARLINK-35656          
1 66391U 25257M   25330.83334491 -.02182214  00000+0 -32715-1 0  9994
2 66391  53.1595 339.6199 0001228  85.8763  46.7340 15.57636017  4037
STARLINK-35671          
1 66392U 25257N   25330.83334491 -.01986695  00000+0 -27019-1 0  9990
2 66392  53.1600 339.9657 0001008  81.8459 244.2749 15.60421490  3949
STARLINK-35652          
1 66393U 25257P   25330.83334491 -.01998565  00000+0 -27196-1 0  9996
2 66393  53.1596 339.9704 0001084  94.5737 229.6311 15.60427336  3948
STARLINK-35672          
1 66394U 25257Q   25330.83334491 -.02008101  00000+0 -27337-1 0  9993
2 66394  53.1598 339.9619 0001027  82.4466 245.5877 15.60434511  3945
